CCSDS_OMM_VERS = 2.0
CREATION_DATE  = 
ORIGINATOR     = 

OBJECT_NAME    = ATLAS CENTAUR R/B
OBJECT_ID      = 1972-065B
CENTER_NAME    = EARTH
REF_FRAME      = TEME
TIME_SYSTEM    = UTC
MEAN_ELEMENT_THEORY = SGP/SGP4

EPOCH          = 2026-01-30T15:39:06.238656
MEAN_MOTION    = 14.77569722
ECCENTRICITY   = .00332528
INCLINATION    = 35.0001
RA_OF_ASC_NODE = 168.6458
ARG_OF_PERICENTER = 49.1999
MEAN_ANOMALY   = 311.1579

EPHEMERIS_TYPE = 0
CLASSIFICATION_TYPE = U
NORAD_CAT_ID   = 6155
ELEMENT_SET_NO = 999
REV_AT_EPOCH   = 83563
BSTAR          = .24147454E-3
MEAN_MOTION_DOT = .1745E-4
MEAN_MOTION_DDOT = 0

CCSDS_OMM_VERS = 2.0
CREATION_DATE  = 
ORIGINATOR     = 

OBJECT_NAME    = SL-8 R/B
OBJECT_ID      = 1975-112B
CENTER_NAME    = EARTH
REF_FRAME      = TEME
TIME_SYSTEM    = UTC
MEAN_ELEMENT_THEORY = SGP/SGP4

EPOCH          = 2026-01-30T20:54:33.142752
MEAN_MOTION    = 14.38183969
ECCENTRICITY   = .00158005
INCLINATION    = 74.0600
RA_OF_ASC_NODE = 88.4864
ARG_OF_PERICENTER = 193.9101
MEAN_ANOMALY   = 166.1620

EPHEMERIS_TYPE = 0
CLASSIFICATION_TYPE = U
NORAD_CAT_ID   = 8459
ELEMENT_SET_NO = 999
REV_AT_EPOCH   = 62643
BSTAR          = .96347815E-4
MEAN_MOTION_DOT = .267E-5
MEAN_MOTION_DDOT = 0

CCSDS_OMM_VERS = 2.0
CREATION_DATE  = 
ORIGINATOR     = 

OBJECT_NAME    = SL-3 R/B
OBJECT_ID      = 1977-057B
CENTER_NAME    = EARTH
REF_FRAME      = TEME
TIME_SYSTEM    = UTC
MEAN_ELEMENT_THEORY = SGP/SGP4

EPOCH          = 2026-01-30T22:59:35.849184
MEAN_MOTION    = 15.44380112
ECCENTRICITY   = .00084631
INCLINATION    = 97.5713
RA_OF_ASC_NODE = 201.2634
ARG_OF_PERICENTER = 63.2439
MEAN_ANOMALY   = 296.9674

EPHEMERIS_TYPE = 0
CLASSIFICATION_TYPE = U
NORAD_CAT_ID   = 10114
ELEMENT_SET_NO = 999
REV_AT_EPOCH   = 66250
BSTAR          = .28545416E-3
MEAN_MOTION_DOT = .13108E-3
MEAN_MOTION_DDOT = 0

CCSDS_OMM_VERS = 2.0
CREATION_DATE  = 
ORIGINATOR     = 

OBJECT_NAME    = SEASAT 1
OBJECT_ID      = 1978-064A
CENTER_NAME    = EARTH
REF_FRAME      = TEME
TIME_SYSTEM    = UTC
MEAN_ELEMENT_THEORY = SGP/SGP4

EPOCH          = 2026-01-30T22:26:40.943904
MEAN_MOTION    = 14.46126194
ECCENTRICITY   = .00013912
INCLINATION    = 108.0165
RA_OF_ASC_NODE = 46.2655
ARG_OF_PERICENTER = 289.8108
MEAN_ANOMALY   = 70.2888

EPHEMERIS_TYPE = 0
CLASSIFICATION_TYPE = U
NORAD_CAT_ID   = 10967
ELEMENT_SET_NO = 999
REV_AT_EPOCH   = 50105
BSTAR          = .15083879E-3
MEAN_MOTION_DOT = .402E-5
MEAN_MOTION_DDOT = 0

CCSDS_OMM_VERS = 2.0
CREATION_DATE  = 
ORIGINATOR     = 

OBJECT_NAME    = SL-14 R/B
OBJECT_ID      = 1979-011B
CENTER_NAME    = EARTH
REF_FRAME      = TEME
TIME_SYSTEM    = UTC
MEAN_ELEMENT_THEORY = SGP/SGP4

EPOCH          = 2026-01-30T18:03:25.174080
MEAN_MOTION    = 14.91856787
ECCENTRICITY   = .0016048
INCLINATION    = 82.5262
RA_OF_ASC_NODE = 132.5632
ARG_OF_PERICENTER = 179.0468
MEAN_ANOMALY   = 181.0786

EPHEMERIS_TYPE = 0
CLASSIFICATION_TYPE = U
NORAD_CAT_ID   = 11267
ELEMENT_SET_NO = 999
REV_AT_EPOCH   = 52312
BSTAR          = .88755879E-4
MEAN_MOTION_DOT = .923E-5
MEAN_MOTION_DDOT = 0

CCSDS_OMM_VERS = 2.0
CREATION_DATE  = 
ORIGINATOR     = 

OBJECT_NAME    = SL-8 R/B
OBJECT_ID      = 1979-089B
CENTER_NAME    = EARTH
REF_FRAME      = TEME
TIME_SYSTEM    = UTC
MEAN_ELEMENT_THEORY = SGP/SGP4

EPOCH          = 2026-01-30T19:20:05.714016
MEAN_MOTION    = 14.42324993
ECCENTRICITY   = .00162223
INCLINATION    = 74.0694
RA_OF_ASC_NODE = 161.1661
ARG_OF_PERICENTER = 339.0032
MEAN_ANOMALY   = 21.0456

EPHEMERIS_TYPE = 0
CLASSIFICATION_TYPE = U
NORAD_CAT_ID   = 11574
ELEMENT_SET_NO = 999
REV_AT_EPOCH   = 43064
BSTAR          = .12774214E-3
MEAN_MOTION_DOT = .396E-5
MEAN_MOTION_DDOT = 0

CCSDS_OMM_VERS = 2.0
CREATION_DATE  = 
ORIGINATOR     = 

OBJECT_NAME    = SL-14 R/B
OBJECT_ID      = 1980-005B
CENTER_NAME    = EARTH
REF_FRAME      = TEME
TIME_SYSTEM    = UTC
MEAN_ELEMENT_THEORY = SGP/SGP4

EPOCH          = 2026-01-30T22:36:14.870592
MEAN_MOTION    = 14.90874716
ECCENTRICITY   = .0014251
INCLINATION    = 82.5169
RA_OF_ASC_NODE = 343.0312
ARG_OF_PERICENTER = 292.0815
MEAN_ANOMALY   = 67.8891

EPHEMERIS_TYPE = 0
CLASSIFICATION_TYPE = U
NORAD_CAT_ID   = 11672
ELEMENT_SET_NO = 999
REV_AT_EPOCH   = 47086
BSTAR          = .858216E-4
MEAN_MOTION_DOT = .872E-5
MEAN_MOTION_DDOT = 0

CCSDS_OMM_VERS = 2.0
CREATION_DATE  = 
ORIGINATOR     = 

OBJECT_NAME    = SL-8 R/B
OBJECT_ID      = 1981-003B
CENTER_NAME    = EARTH
REF_FRAME      = TEME
TIME_SYSTEM    = UTC
MEAN_ELEMENT_THEORY = SGP/SGP4

EPOCH          = 2026-01-30T21:40:16.949280
MEAN_MOTION    = 15.09490772
ECCENTRICITY   = .02655532
INCLINATION    = 82.9392
RA_OF_ASC_NODE = 324.9256
ARG_OF_PERICENTER = 310.7767
MEAN_ANOMALY   = 47.0685

EPHEMERIS_TYPE = 0
CLASSIFICATION_TYPE = U
NORAD_CAT_ID   = 12139
ELEMENT_SET_NO = 999
REV_AT_EPOCH   = 30897
BSTAR          = .6387722E-3
MEAN_MOTION_DOT = .24062E-3
MEAN_MOTION_DDOT = 0

CCSDS_OMM_VERS = 2.0
CREATION_DATE  = 
ORIGINATOR     = 

OBJECT_NAME    = SL-3 R/B
OBJECT_ID      = 1981-046B
CENTER_NAME    = EARTH
REF_FRAME      = TEME
TIME_SYSTEM    = UTC
MEAN_ELEMENT_THEORY = SGP/SGP4

EPOCH          = 2026-01-30T22:32:39.283584
MEAN_MOTION    = 15.40917580
ECCENTRICITY   = .00201628
INCLINATION    = 81.2343
RA_OF_ASC_NODE = 335.0253
ARG_OF_PERICENTER = 145.7705
MEAN_ANOMALY   = 214.4842

EPHEMERIS_TYPE = 0
CLASSIFICATION_TYPE = U
NORAD_CAT_ID   = 12465
ELEMENT_SET_NO = 999
REV_AT_EPOCH   = 43261
BSTAR          = .30044544E-3
MEAN_MOTION_DOT = .12477E-3
MEAN_MOTION_DDOT = 0

CCSDS_OMM_VERS = 2.0
CREATION_DATE  = 
ORIGINATOR     = 

OBJECT_NAME    = SL-3 R/B
OBJECT_ID      = 1981-103B
CENTER_NAME    = EARTH
REF_FRAME      = TEME
TIME_SYSTEM    = UTC
MEAN_ELEMENT_THEORY = SGP/SGP4

EPOCH          = 2026-01-30T22:45:43.128576
MEAN_MOTION    = 15.20917248
ECCENTRICITY   = .00141084
INCLINATION    = 81.1576
RA_OF_ASC_NODE = 257.6988
ARG_OF_PERICENTER = 54.1925
MEAN_ANOMALY   = 306.0615

EPHEMERIS_TYPE = 0
CLASSIFICATION_TYPE = U
NORAD_CAT_ID   = 12904
ELEMENT_SET_NO = 999
REV_AT_EPOCH   = 96749
BSTAR          = .2412879E-3
MEAN_MOTION_DOT = .5375E-4
MEAN_MOTION_DDOT = 0

CCSDS_OMM_VERS = 2.0
CREATION_DATE  = 
ORIGINATOR     = 

OBJECT_NAME    = SL-3 R/B
OBJECT_ID      = 1982-013B
CENTER_NAME    = EARTH
REF_FRAME      = TEME
TIME_SYSTEM    = UTC
MEAN_ELEMENT_THEORY = SGP/SGP4

EPOCH          = 2026-01-30T21:46:09.250464
MEAN_MOTION    = 15.21588401
ECCENTRICITY   = .00219595
INCLINATION    = 81.1722
RA_OF_ASC_NODE = 205.0353
ARG_OF_PERICENTER = 308.9197
MEAN_ANOMALY   = 51.0076

EPHEMERIS_TYPE = 0
CLASSIFICATION_TYPE = U
NORAD_CAT_ID   = 13068
ELEMENT_SET_NO = 999
REV_AT_EPOCH   = 39860
BSTAR          = .21300014E-3
MEAN_MOTION_DOT = .486E-4
MEAN_MOTION_DDOT = 0

CCSDS_OMM_VERS = 2.0
CREATION_DATE  = 
ORIGINATOR     = 

OBJECT_NAME    = SL-3 R/B
OBJECT_ID      = 1982-039B
CENTER_NAME    = EARTH
REF_FRAME      = TEME
TIME_SYSTEM    = UTC
MEAN_ELEMENT_THEORY = SGP/SGP4

EPOCH          = 2026-01-30T22:49:32.737440
MEAN_MOTION    = 15.09868657
ECCENTRICITY   = .00300854
INCLINATION    = 81.1638
RA_OF_ASC_NODE = 259.4560
ARG_OF_PERICENTER = 87.9528
MEAN_ANOMALY   = 272.5142

EPHEMERIS_TYPE = 0
CLASSIFICATION_TYPE = U
NORAD_CAT_ID   = 13154
ELEMENT_SET_NO = 999
REV_AT_EPOCH   = 37594
BSTAR          = .16738952E-3
MEAN_MOTION_DOT = .2762E-4
MEAN_MOTION_DDOT = 0

