ATLAS CENTAUR R/B       
1 06155U 72065B   26030.65215554  .00001745  00000+0  24147-3 0  9998
2 06155  35.0001 168.6458 0033252  49.1999 311.1579 14.77569722835634
SL-8 R/B                
1 08459U 75112B   26030.87121693  .00000267  00000+0  96348-4 0  9998
2 08459  74.0600  88.4864 0015800 193.9101 166.1620 14.38183969626436
SL-3 R/B                
1 10114U 77057B   26030.95805381  .00013108  00000+0  28545-3 0  9992
2 10114  97.5713 201.2634 0008463  63.2439 296.9674 15.44380112662508
SEASAT 1                
1 10967U 78064A   26030.93519611  .00000402  00000+0  15084-3 0  9990
2 10967 108.0165  46.2655 0001391 289.8108  70.2888 14.46126194501056
SL-14 R/B               
1 11267U 79011B   26030.75237470  .00000923  00000+0  88756-4 0  9992
2 11267  82.5262 132.5632 0016048 179.0468 181.0786 14.91856787523120
SL-8 R/B                
1 11574U 79089B   26030.80562169  .00000396  00000+0  12774-3 0  9990
2 11574  74.0694 161.1661 0016222 339.0032  21.0456 14.42324993430641
SL-14 R/B               
1 11672U 80005B   26030.94183878  .00000872  00000+0  85822-4 0  9994
2 11672  82.5169 343.0312 0014251 292.0815  67.8891 14.90874716470867
SL-8 R/B                
1 12139U 81003B   26030.90297395  .00024062  00000+0  63877-3 0  9990
2 12139  82.9392 324.9256 0265553 310.7767  47.0685 15.09490772308970
SL-3 R/B                
1 12465U 81046B   26030.93934356  .00012477  00000+0  30045-3 0  9995
2 12465  81.2343 335.0253 0020162 145.7705 214.4842 15.40917580432613
SL-3 R/B                
1 12904U 81103B   26030.94841584  .00005375  00000+0  24129-3 0  9993
2 12904  81.1576 257.6988 0014108  54.1925 306.0615 15.20917248967496
SL-3 R/B                
1 13068U 82013B   26030.90705151  .00004860  00000+0  21300-3 0  9997
2 13068  81.1722 205.0353 0021959 308.9197  51.0076 15.21588401398602
SL-3 R/B                
1 13154U 82039B   26030.95107335  .00002762  00000+0  16739-3 0  9995
2 13154  81.1638 259.4560 0030085  87.9528 272.5142 15.09868657375945
